GOES 1 (SMS-C) [-]      
1 08366U 75100A   22044.55291979 -.00000131  00000+0  00000+0 0  9999
2 08366   8.5745 297.3113 0001695 340.9741 326.7853  1.00314681169171
GOES 2 [-]              
1 10061U 77048A   22043.73271071 -.00000087  00000+0  00000+0 0  9997
2 10061  10.1288 308.4296 0013803  20.0618 173.9727  0.99394162 30512
GOES 3 [-]              
1 10953U 78062A   22044.06688168 -.00000240  00000+0  00000+0 0  9991
2 10953  10.4417 312.8155 0002075  75.7280 110.4688  0.99364482112787
GOES 4 [-]              
1 11964U 80074A   22043.73358288 -.00000092  00000+0  00000+0 0  9995
2 11964  11.3877 316.6296 0034041  67.0317 123.1068  0.99227845111706
GOES 5 [-]              
1 12472U 81049A   22044.43699251 -.00000048  00000+0  00000+0 0  9990
2 12472  12.1664 327.8423 0001279  27.3765 191.8586  1.00338285106955
GOES 6 [-]              
1 14050U 83041A   22044.36071378 -.00000107  00000+0  00000+0 0  9990
2 14050  12.6949 333.0987 0002780 106.6581  88.9013  1.00327209200128
GOES 7 [-]              
1 17561U 87022A   22043.93963036  .00000107  00000+0  00000+0 0  9995
2 17561  14.3442 349.5871 0006502  39.9300 145.3291  0.99891778111123
GOES 8 [-]              
1 23051U 94022A   22044.51218059  .00000024  00000+0  00000+0 0  9995
2 23051  13.0708  25.0774 0007151   0.6145 194.5096  0.98902975108458
GOES 9 [-]              
1 23581U 95025A   22044.60482459 -.00000061  00000+0  00000+0 0  9996
2 23581  12.5619  25.3359 0004488  67.4022 112.8921  0.98800502 97100
GOES 10 [-]             
1 24786U 97019A   22044.44991854 -.00000055  00000+0  00000+0 0  9998
2 24786  11.2793  31.4168 0025442 202.8808 164.3302  0.99121708 90364
GOES 11 [-]             
1 26352U 00022A   22044.21532704 -.00000189  00000+0  00000+0 0  9995
2 26352   8.4211  60.3025 0002356 266.5408 250.3965  0.99045093 79295
GOES 12 [-]             
1 26871U 01031A   22044.62305872  .00000067  00000+0  00000+0 0  9995
2 26871   9.2962  48.9848 0008479 312.5384 231.9999  0.99136048 75058
EWS-G1 (GOES 13) [+]    
1 29155U 06018A   22044.51541942  .00000039  00000+0  00000+0 0  9990
2 29155   0.4743  98.7576 0004345 161.1175 130.7594  1.00269373 27483
GOES 14 [B]             
1 35491U 09033A   22044.59851001 -.00000089  00000+0  00000+0 0  9994
2 35491   0.0281  44.5612 0013458 184.3878  25.6161  1.00271734 46227
GOES 15 [B]             
1 36411U 10008A   22044.57797189  .00000056  00000+0  00000+0 0  9998
2 36411   0.0344 240.6196 0001555 128.1871 214.7749  1.00279525 43787
GOES 16 [+]             
1 41866U 16071A   22044.53677576 -.00000245  00000+0  00000+0 0  9998
2 41866   0.0892 273.2719 0001211  75.4945 272.7954  1.00271116 19225
GOES 17 [+]             
1 43226U 18022A   22044.56987663  .00000101  00000+0  00000+0 0  9992
2 43226   0.0664 275.1255 0000574  57.1554 239.2270  1.00273034 14533
